CCSDS_OMM_VERS = 2.0
CREATION_DATE  = 
ORIGINATOR     = 

OBJECT_NAME    = 2025-313AM
OBJECT_ID      = 2025-313AM
CENTER_NAME    = EARTH
REF_FRAME      = TEME
TIME_SYSTEM    = UTC
MEAN_ELEMENT_THEORY = SGP/SGP4

EPOCH          = 2026-01-09T15:36:58.886784
MEAN_MOTION    = 15.21087658
ECCENTRICITY   = .00108249
INCLINATION    = 97.4115
RA_OF_ASC_NODE = 86.9155
ARG_OF_PERICENTER = 188.7059
MEAN_ANOMALY   = 171.3991

EPHEMERIS_TYPE = 0
CLASSIFICATION_TYPE = U
NORAD_CAT_ID   = 67283
ELEMENT_SET_NO = 999
REV_AT_EPOCH   = 184
BSTAR          = .4355929E-3
MEAN_MOTION_DOT = .9634E-4
MEAN_MOTION_DDOT = 0

CCSDS_OMM_VERS = 2.0
CREATION_DATE  = 
ORIGINATOR     = 

OBJECT_NAME    = 2025-313AN
OBJECT_ID      = 2025-313AN
CENTER_NAME    = EARTH
REF_FRAME      = TEME
TIME_SYSTEM    = UTC
MEAN_ELEMENT_THEORY = SGP/SGP4

EPOCH          = 2026-01-09T15:37:29.247744
MEAN_MOTION    = 15.20958976
ECCENTRICITY   = .00107487
INCLINATION    = 97.4102
RA_OF_ASC_NODE = 86.9122
ARG_OF_PERICENTER = 188.7937
MEAN_ANOMALY   = 171.3112

EPHEMERIS_TYPE = 0
CLASSIFICATION_TYPE = U
NORAD_CAT_ID   = 67284
ELEMENT_SET_NO = 999
REV_AT_EPOCH   = 184
BSTAR          = .18853294E-3
MEAN_MOTION_DOT = .4112E-4
MEAN_MOTION_DDOT = 0

CCSDS_OMM_VERS = 2.0
CREATION_DATE  = 
ORIGINATOR     = 

OBJECT_NAME    = 2025-313AP
OBJECT_ID      = 2025-313AP
CENTER_NAME    = EARTH
REF_FRAME      = TEME
TIME_SYSTEM    = UTC
MEAN_ELEMENT_THEORY = SGP/SGP4

EPOCH          = 2026-01-09T15:36:08.879328
MEAN_MOTION    = 15.21155977
ECCENTRICITY   = .0010431
INCLINATION    = 97.4092
RA_OF_ASC_NODE = 86.9119
ARG_OF_PERICENTER = 190.2468
MEAN_ANOMALY   = 169.8556

EPHEMERIS_TYPE = 0
CLASSIFICATION_TYPE = U
NORAD_CAT_ID   = 67285
ELEMENT_SET_NO = 999
REV_AT_EPOCH   = 184
BSTAR          = .417956E-3
MEAN_MOTION_DOT = .9258E-4
MEAN_MOTION_DDOT = 0

CCSDS_OMM_VERS = 2.0
CREATION_DATE  = 
ORIGINATOR     = 

OBJECT_NAME    = 2025-313AQ
OBJECT_ID      = 2025-313AQ
CENTER_NAME    = EARTH
REF_FRAME      = TEME
TIME_SYSTEM    = UTC
MEAN_ELEMENT_THEORY = SGP/SGP4

EPOCH          = 2026-01-09T10:51:21.821760
MEAN_MOTION    = 15.21192147
ECCENTRICITY   = .00101193
INCLINATION    = 97.4114
RA_OF_ASC_NODE = 86.7305
ARG_OF_PERICENTER = 187.0069
MEAN_ANOMALY   = 173.1027

EPHEMERIS_TYPE = 0
CLASSIFICATION_TYPE = U
NORAD_CAT_ID   = 67286
ELEMENT_SET_NO = 999
REV_AT_EPOCH   = 181
BSTAR          = .4051024E-3
MEAN_MOTION_DOT = .898E-4
MEAN_MOTION_DDOT = 0

CCSDS_OMM_VERS = 2.0
CREATION_DATE  = 
ORIGINATOR     = 

OBJECT_NAME    = LUCA
OBJECT_ID      = 2025-313AR
CENTER_NAME    = EARTH
REF_FRAME      = TEME
TIME_SYSTEM    = UTC
MEAN_ELEMENT_THEORY = SGP/SGP4

EPOCH          = 2026-01-09T10:50:55.961376
MEAN_MOTION    = 15.21261809
ECCENTRICITY   = .00100436
INCLINATION    = 97.4111
RA_OF_ASC_NODE = 86.7310
ARG_OF_PERICENTER = 187.3752
MEAN_ANOMALY   = 172.7338

EPHEMERIS_TYPE = 0
CLASSIFICATION_TYPE = U
NORAD_CAT_ID   = 67287
ELEMENT_SET_NO = 999
REV_AT_EPOCH   = 181
BSTAR          = .50459576E-3
MEAN_MOTION_DOT = .11228E-3
MEAN_MOTION_DDOT = 0

CCSDS_OMM_VERS = 2.0
CREATION_DATE  = 
ORIGINATOR     = 

OBJECT_NAME    = 2025-313AS
OBJECT_ID      = 2025-313AS
CENTER_NAME    = EARTH
REF_FRAME      = TEME
TIME_SYSTEM    = UTC
MEAN_ELEMENT_THEORY = SGP/SGP4

EPOCH          = 2026-01-09T15:35:36.761856
MEAN_MOTION    = 15.21159506
ECCENTRICITY   = .00118674
INCLINATION    = 97.4103
RA_OF_ASC_NODE = 86.9220
ARG_OF_PERICENTER = 179.4485
MEAN_ANOMALY   = 180.6766

EPHEMERIS_TYPE = 0
CLASSIFICATION_TYPE = U
NORAD_CAT_ID   = 67288
ELEMENT_SET_NO = 999
REV_AT_EPOCH   = 184
BSTAR          = .29047042E-3
MEAN_MOTION_DOT = .6414E-4
MEAN_MOTION_DDOT = 0

CCSDS_OMM_VERS = 2.0
CREATION_DATE  = 
ORIGINATOR     = 

OBJECT_NAME    = 2025-313AT
OBJECT_ID      = 2025-313AT
CENTER_NAME    = EARTH
REF_FRAME      = TEME
TIME_SYSTEM    = UTC
MEAN_ELEMENT_THEORY = SGP/SGP4

EPOCH          = 2026-01-09T12:24:53.908704
MEAN_MOTION    = 15.21384543
ECCENTRICITY   = .00099764
INCLINATION    = 97.4114
RA_OF_ASC_NODE = 86.7969
ARG_OF_PERICENTER = 187.6541
MEAN_ANOMALY   = 172.4544

EPHEMERIS_TYPE = 0
CLASSIFICATION_TYPE = U
NORAD_CAT_ID   = 67289
ELEMENT_SET_NO = 999
REV_AT_EPOCH   = 182
BSTAR          = .63505646E-3
MEAN_MOTION_DOT = .14206E-3
MEAN_MOTION_DDOT = 0

CCSDS_OMM_VERS = 2.0
CREATION_DATE  = 
ORIGINATOR     = 

OBJECT_NAME    = SAKHACUBE-CHOLBON (RS-18S)
OBJECT_ID      = 2025-313AU
CENTER_NAME    = EARTH
REF_FRAME      = TEME
TIME_SYSTEM    = UTC
MEAN_ELEMENT_THEORY = SGP/SGP4

EPOCH          = 2026-01-09T06:05:59.196768
MEAN_MOTION    = 15.21341080
ECCENTRICITY   = .00097612
INCLINATION    = 97.4115
RA_OF_ASC_NODE = 86.5376
ARG_OF_PERICENTER = 187.5226
MEAN_ANOMALY   = 172.5865

EPHEMERIS_TYPE = 0
CLASSIFICATION_TYPE = U
NORAD_CAT_ID   = 67290
ELEMENT_SET_NO = 999
REV_AT_EPOCH   = 178
BSTAR          = .54882705E-3
MEAN_MOTION_DOT = .12248E-3
MEAN_MOTION_DDOT = 0

CCSDS_OMM_VERS = 2.0
CREATION_DATE  = 
ORIGINATOR     = 

OBJECT_NAME    = 2025-313AV
OBJECT_ID      = 2025-313AV
CENTER_NAME    = EARTH
REF_FRAME      = TEME
TIME_SYSTEM    = UTC
MEAN_ELEMENT_THEORY = SGP/SGP4

EPOCH          = 2026-01-09T12:24:29.659680
MEAN_MOTION    = 15.21393991
ECCENTRICITY   = .00097032
INCLINATION    = 97.4113
RA_OF_ASC_NODE = 86.7973
ARG_OF_PERICENTER = 186.6536
MEAN_ANOMALY   = 173.4572

EPHEMERIS_TYPE = 0
CLASSIFICATION_TYPE = U
NORAD_CAT_ID   = 67291
ELEMENT_SET_NO = 999
REV_AT_EPOCH   = 182
BSTAR          = .54911509E-3
MEAN_MOTION_DOT = .12273E-3
MEAN_MOTION_DDOT = 0

CCSDS_OMM_VERS = 2.0
CREATION_DATE  = 
ORIGINATOR     = 

OBJECT_NAME    = 2025-313AW
OBJECT_ID      = 2025-313AW
CENTER_NAME    = EARTH
REF_FRAME      = TEME
TIME_SYSTEM    = UTC
MEAN_ELEMENT_THEORY = SGP/SGP4

EPOCH          = 2026-01-09T12:23:48.398496
MEAN_MOTION    = 15.21438043
ECCENTRICITY   = .00094401
INCLINATION    = 97.4118
RA_OF_ASC_NODE = 86.7988
ARG_OF_PERICENTER = 186.3024
MEAN_ANOMALY   = 173.8095

EPHEMERIS_TYPE = 0
CLASSIFICATION_TYPE = U
NORAD_CAT_ID   = 67292
ELEMENT_SET_NO = 999
REV_AT_EPOCH   = 182
BSTAR          = .51278952E-3
MEAN_MOTION_DOT = .1147E-3
MEAN_MOTION_DDOT = 0

CCSDS_OMM_VERS = 2.0
CREATION_DATE  = 
ORIGINATOR     = 

OBJECT_NAME    = 2025-313AX
OBJECT_ID      = 2025-313AX
CENTER_NAME    = EARTH
REF_FRAME      = TEME
TIME_SYSTEM    = UTC
MEAN_ELEMENT_THEORY = SGP/SGP4

EPOCH          = 2026-01-09T12:24:32.135040
MEAN_MOTION    = 15.21282558
ECCENTRICITY   = .0011315
INCLINATION    = 97.4113
RA_OF_ASC_NODE = 86.7950
ARG_OF_PERICENTER = 177.3871
MEAN_ANOMALY   = 182.7426

EPHEMERIS_TYPE = 0
CLASSIFICATION_TYPE = U
NORAD_CAT_ID   = 67293
ELEMENT_SET_NO = 999
REV_AT_EPOCH   = 182
BSTAR          = .22270376E-3
MEAN_MOTION_DOT = .4918E-4
MEAN_MOTION_DDOT = 0

CCSDS_OMM_VERS = 2.0
CREATION_DATE  = 
ORIGINATOR     = 

OBJECT_NAME    = 2025-313AY
OBJECT_ID      = 2025-313AY
CENTER_NAME    = EARTH
REF_FRAME      = TEME
TIME_SYSTEM    = UTC
MEAN_ELEMENT_THEORY = SGP/SGP4

EPOCH          = 2026-01-09T12:23:19.592736
MEAN_MOTION    = 15.21480218
ECCENTRICITY   = .00093395
INCLINATION    = 97.4121
RA_OF_ASC_NODE = 86.7993
ARG_OF_PERICENTER = 186.4955
MEAN_ANOMALY   = 173.6162

EPHEMERIS_TYPE = 0
CLASSIFICATION_TYPE = U
NORAD_CAT_ID   = 67294
ELEMENT_SET_NO = 999
REV_AT_EPOCH   = 182
BSTAR          = .46170571E-3
MEAN_MOTION_DOT = .10331E-3
MEAN_MOTION_DDOT = 0

CCSDS_OMM_VERS = 2.0
CREATION_DATE  = 
ORIGINATOR     = 

OBJECT_NAME    = 2025-313AZ
OBJECT_ID      = 2025-313AZ
CENTER_NAME    = EARTH
REF_FRAME      = TEME
TIME_SYSTEM    = UTC
MEAN_ELEMENT_THEORY = SGP/SGP4

EPOCH          = 2026-01-09T15:32:39.550272
MEAN_MOTION    = 15.21467387
ECCENTRICITY   = .00108895
INCLINATION    = 97.4112
RA_OF_ASC_NODE = 86.9257
ARG_OF_PERICENTER = 176.7411
MEAN_ANOMALY   = 183.3898

EPHEMERIS_TYPE = 0
CLASSIFICATION_TYPE = U
NORAD_CAT_ID   = 67295
ELEMENT_SET_NO = 999
REV_AT_EPOCH   = 184
BSTAR          = .41614214E-3
MEAN_MOTION_DOT = .9304E-4
MEAN_MOTION_DDOT = 0

CCSDS_OMM_VERS = 2.0
CREATION_DATE  = 
ORIGINATOR     = 

OBJECT_NAME    = 2025-313BA
OBJECT_ID      = 2025-313BA
CENTER_NAME    = EARTH
REF_FRAME      = TEME
TIME_SYSTEM    = UTC
MEAN_ELEMENT_THEORY = SGP/SGP4

EPOCH          = 2026-01-09T12:22:46.143840
MEAN_MOTION    = 15.21530853
ECCENTRICITY   = .00091042
INCLINATION    = 97.4125
RA_OF_ASC_NODE = 86.8007
ARG_OF_PERICENTER = 187.0097
MEAN_ANOMALY   = 173.1013

EPHEMERIS_TYPE = 0
CLASSIFICATION_TYPE = U
NORAD_CAT_ID   = 67296
ELEMENT_SET_NO = 999
REV_AT_EPOCH   = 182
BSTAR          = .49177172E-3
MEAN_MOTION_DOT = .11025E-3
MEAN_MOTION_DDOT = 0

CCSDS_OMM_VERS = 2.0
CREATION_DATE  = 
ORIGINATOR     = 

OBJECT_NAME    = 2025-313BB
OBJECT_ID      = 2025-313BB
CENTER_NAME    = EARTH
REF_FRAME      = TEME
TIME_SYSTEM    = UTC
MEAN_ELEMENT_THEORY = SGP/SGP4

EPOCH          = 2026-01-09T12:22:08.811264
MEAN_MOTION    = 15.21590419
ECCENTRICITY   = .00087699
INCLINATION    = 97.4126
RA_OF_ASC_NODE = 86.8008
ARG_OF_PERICENTER = 188.9051
MEAN_ANOMALY   = 171.2030

EPHEMERIS_TYPE = 0
CLASSIFICATION_TYPE = U
NORAD_CAT_ID   = 67297
ELEMENT_SET_NO = 999
REV_AT_EPOCH   = 182
BSTAR          = .51065045E-3
MEAN_MOTION_DOT = .11471E-3
MEAN_MOTION_DDOT = 0

